{"spkid": "20790012", "covariance": {"elements": [{"label": "e", "units": null, "title": "eccentricity", "value": ".183466623494164", "name": "e", "sigma": 1.2460463013862e-08}, {"label": "q", "units": "au", "value": "1.02636043249931", "title": "perihelion distance", "name": "q", "sigma": 1.39258354881e-08}, {"label": "tp", "title": "time of perihelion passage", "value": "2458801.908084283195", "units": "TDB", "sigma": 1.58245385390151e-05, "name": "tp"}, {"label": "node", "sigma": 3.06154176028824e-06, "name": "om", "value": "78.10006804691308", "title": "longitude of the ascending node", "units": "deg"}, {"label": "peri", "name": "w", "sigma": 1.52069139873965e-05, "units": "deg", "value": "188.2321353117309", "title": "argument of perihelion"}, {"sigma": 3.38575530235601e-06, "name": "i", "title": "inclination", "value": "10.38809853475679", "units": "deg", "label": "i"}], "data": [["1.552631385198236E-16", "-1.711449872632353E-16", "1.766418280058072E-13", "4.937881602548965E-15", "1.591337810817799E-13", "1.751709858193552E-14"], ["-1.711449872632353E-16", "1.939288940416258E-16", "-1.880702932729044E-13", "-7.035261193273342E-15", "-1.710402749428615E-13", "-1.780383950299087E-14"], ["1.766418280058072E-13", "-1.880702932729044E-13", "2.504160199727751E-10", "-2.985582608260731E-12", "2.353687993415176E-10", "2.708801003092611E-11"], ["4.937881602548965E-15", "-7.035261193273342E-15", "-2.985582608260731E-12", "9.373037949988793E-12", "-1.112028990515599E-11", "-4.50532846977128E-12"], ["1.591337810817799E-13", "-1.710402749428615E-13", "2.353687993415176E-10", "-1.112028990515599E-11", "2.31250233020076E-10", "2.901357072494394E-11"], ["1.751709858193552E-14", "-1.780383950299087E-14", "2.708801003092611E-11", "-4.50532846977128E-12", "2.901357072494394E-11", "1.146333896743181E-11"]], "labels": ["e", "q", "tp", "node", "peri", "i"], "epoch": "2458844.5"}, "elements": [{"value": ".1835592195219843", "title": "eccentricity", "units": null, "sigma": "1.2363E-8", "name": "e", "label": "e"}, {"label": "a", "sigma": "3.4157E-9", "name": "a", "units": "au", "value": "1.257259399078464", "title": "semi-major axis"}, {"label": "q", "sigma": "1.3921E-8", "name": "q", "title": "perihelion distance", "value": "1.026477845046942", "units": "au"}, {"name": "i", "sigma": "3.3856E-6", "title": "inclination; angle with respect to x-y ecliptic plane", "value": "10.3867156601718", "units": "deg", "label": "i"}, {"title": "longitude of the ascending node", "value": "78.06817245534441", "units": "deg", "sigma": "3.0598E-6", "name": "om", "label": "node"}, {"label": "peri", "name": "w", "sigma": "1.5201E-5", "units": "deg", "value": "188.2838694046094", "title": "argument of perihelion"}, {"name": "ma", "sigma": "1.7048E-5", "title": "mean anomaly", "value": "237.4636212982208", "units": "deg", "label": "M"}, {"label": "tp", "title": "time of perihelion passage", "value": "2461375.766253874615", "units": "TDB", "sigma": "2.5024E-5", "name": "tp"}, {"label": "period", "title": "sidereal orbital period", "value": "514.9152607848796", "units": "d", "sigma": "2.0984E-6", "name": "per"}, {"units": "deg/d", "value": ".6991441649083308", "title": "mean motion", "name": "n", "sigma": "2.8491E-9", "label": "n"}, {"sigma": "4.0426E-9", "name": "ad", "title": "aphelion distance", "value": "1.488040953109985", "units": "au", "label": "Q"}], "epoch": "2461200.5"}